PROGRESS-MS 26          
1 58961U 24029A   24111.84951245  .00028365  00000+0  49370-3 0  9992
2 58961  51.6372 239.7174 0004671  81.5255 278.6263 15.50532816  9988
